[{"OBJECT_NAME":"STARLINK-6067","OBJECT_ID":"2023-078BB","EPOCH":"2026-03-09T23:48:08.788896","MEAN_MOTION":14.983264,"ECCENTRICITY":0.00026539,"INCLINATION":70.0005,"RA_OF_ASC_NODE":323.4976,"ARG_OF_PERICENTER":261.3525,"MEAN_ANOMALY":98.7334,"EPHEMERIS_TYPE":0,"CLASSIFICATION_TYPE":"U","NORAD_CAT_ID":56816,"ELEMENT_SET_NO":999,"REV_AT_EPOCH":15322,"BSTAR":9.7884525e-5,"MEAN_MOTION_DOT":1.075e-5,"MEAN_MOTION_DDOT":0},{"OBJECT_NAME":"ELECTRON KICK STAGE R\/B","OBJECT_ID":"2025-169B","EPOCH":"2026-03-08T18:46:24.954528","MEAN_MOTION":15.00375909,"ECCENTRICITY":0.00087281,"INCLINATION":42.0099,"RA_OF_ASC_NODE":207.6084,"ARG_OF_PERICENTER":269.0782,"MEAN_ANOMALY":90.9044,"EPHEMERIS_TYPE":0,"CLASSIFICATION_TYPE":"U","NORAD_CAT_ID":65117,"ELEMENT_SET_NO":999,"REV_AT_EPOCH":3234,"BSTAR":0.00071792459,"MEAN_MOTION_DOT":8.999e-5,"MEAN_MOTION_DDOT":0}]
